[{"OBJECT_NAME":"CENTAURI-1","OBJECT_ID":"2018-099BD","EPOCH":"2026-03-09T22:09:49.248288","MEAN_MOTION":15.15253131,"ECCENTRICITY":0.00131381,"INCLINATION":97.4356,"RA_OF_ASC_NODE":122.787,"ARG_OF_PERICENTER":317.3233,"MEAN_ANOMALY":42.6978,"EPHEMERIS_TYPE":0,"CLASSIFICATION_TYPE":"U","NORAD_CAT_ID":43809,"ELEMENT_SET_NO":999,"REV_AT_EPOCH":39746,"BSTAR":0.00036885866,"MEAN_MOTION_DOT":6.886e-5,"MEAN_MOTION_DDOT":0},{"OBJECT_NAME":"STARLINK-5111","OBJECT_ID":"2023-046BG","EPOCH":"2026-03-09T22:00:01.999584","MEAN_MOTION":15.10653053,"ECCENTRICITY":0.00021632,"INCLINATION":42.9999,"RA_OF_ASC_NODE":144.1695,"ARG_OF_PERICENTER":267.6018,"MEAN_ANOMALY":58.5263,"EPHEMERIS_TYPE":0,"CLASSIFICATION_TYPE":"U","NORAD_CAT_ID":56146,"ELEMENT_SET_NO":999,"REV_AT_EPOCH":577,"BSTAR":0.00029692935,"MEAN_MOTION_DOT":4.781e-5,"MEAN_MOTION_DDOT":0}]
